NORAD_CAT_ID,OBJECT_NAME,OBJECT_TYPE,EPOCH,MEAN_MOTION,ECCENTRICITY,INCLINATION,RA_OF_ASC_NODE,ARG_OF_PERICENTER,MEAN_ANOMALY,BSTAR,MEAN_MOTION_DOT,MEAN_MOTION_DDOT,TLE_LINE0,TLE_LINE1,TLE_LINE2,SEMIMAJOR_AXIS,PERIOD,APOGEE,PERIGEE,DECAYED
52095.0,STARLINK-3701,PAYLOAD,2024-06-27 18:59:32,15.08867401,0.0001301,53.218,351.9544,77.6918,282.4219,0.00067295,0.00010446,0.0,0 STARLINK-3701,1 52095U 22029H   24179.79135243  .00010446  00000-0  67295-3 0  9990,2 52095  53.2180 351.9544 0001301  77.6918 282.4219 15.08867401127071,6917.797,95.436,540.562,538.762,0.0
52095.0,STARLINK-3701,PAYLOAD,2024-06-28 18:50:18,15.08866527,0.0001685,53.2166,347.4933,61.7958,298.3204,0.0011373,0.00017872,0.0,0 STARLINK-3701,1 52095U 22029H   24180.78493486  .00017872  00000-0  11373-2 0  9992,2 52095  53.2166 347.4933 0001685  61.7958 298.3204 15.08866527127225,6917.799,95.436,540.83,538.499,0.0
52095.0,STARLINK-3701,PAYLOAD,2024-06-29 04:22:38,15.0885665,0.0001623,53.2174,345.7101,71.6465,288.4704,0.00094342,0.00014765,0.0,0 STARLINK-3701,1 52095U 22029H   24181.18239067  .00014765  00000-0  94342-3 0  9996,2 52095  53.2174 345.7101 0001623  71.6465 288.4704 15.08856650127284,6917.829,95.437,540.817,538.572,0.0
52095.0,STARLINK-3701,PAYLOAD,2024-06-29 10:44:12,15.08843878,0.0001417,53.2171,344.5216,74.2094,285.9054,0.00077489,0.00012067,0.0,0 STARLINK-3701,1 52095U 22029H   24181.44736641  .00012067  00000-0  77489-3 0  9991,2 52095  53.2171 344.5216 0001417  74.2094 285.9054 15.08843878127326,6917.869,95.437,540.714,538.753,0.0
52095.0,STARLINK-3701,PAYLOAD,2024-06-29 20:16:30,15.08859664,0.0001349,53.2172,342.7374,69.0892,291.0244,0.00078742,0.00012273,0.0,0 STARLINK-3701,1 52095U 22029H   24181.84480028  .00012273  00000-0  78742-3 0  9992,2 52095  53.2172 342.7374 0001349  69.0892 291.0244 15.08859664127389,6917.82,95.436,540.618,538.752,0.0
52095.0,STARLINK-3701,PAYLOAD,2024-06-30 13:45:43,15.08918973,0.0001509,53.2154,339.466,131.4322,228.68,0.00033287,5.025e-05,0.0,0 STARLINK-3701,1 52095U 22029H   24182.57342430  .00005025  00000-0  33287-3 0  9999,2 52095  53.2154 339.4660 0001509 131.4322 228.6800 15.08918973127495,6917.639,95.433,540.548,538.46,0.0
52095.0,STARLINK-3701,PAYLOAD,2024-06-30 16:56:29,15.08891634,0.0001196,53.2173,338.8713,80.1058,280.0069,0.00076011,0.00011847,0.0,0 STARLINK-3701,1 52095U 22029H   24182.70590104  .00011847  00000-0  76011-3 0  9998,2 52095  53.2173 338.8713 0001196  80.1058 280.0069 15.08891634127512,6917.723,95.434,540.415,538.76,0.0
52095.0,STARLINK-3701,PAYLOAD,2024-07-01 04:04:11,15.08891039,0.0001066,53.2161,336.7893,94.5565,265.5549,0.00069661,0.00010831,0.0,0 STARLINK-3701,1 52095U 22029H   24183.16957845  .00010831  00000-0  69661-3 0  9993,2 52095  53.2161 336.7893 0001066  94.5565 265.5549 15.08891039127580,6917.724,95.434,540.327,538.852,0.0
52095.0,STARLINK-3701,PAYLOAD,2024-07-01 10:25:44,15.08870742,0.0002069,53.2158,335.5999,82.5206,277.6021,0.0010273,0.00016113,0.0,0 STARLINK-3701,1 52095U 22029H   24183.43454385  .00016113  00000-0  10273-2 0  9997,2 52095  53.2158 335.5999 0002069  82.5206 277.6021 15.08870742127625,6917.786,95.436,541.083,538.22,0.0
52095.0,STARLINK-3701,PAYLOAD,2024-07-01 13:36:31,15.08858669,0.0001133,53.2172,335.0056,84.3051,275.807,0.00090475,0.00014148,0.0,0 STARLINK-3701,1 52095U 22029H   24183.56703386  .00014148  00000-0  90475-3 0  9998,2 52095  53.2172 335.0056 0001133  84.3051 275.8070 15.08858669127649,6917.823,95.436,540.472,538.905,0.0
52095.0,STARLINK-3701,PAYLOAD,2024-07-01 16:47:17,15.08863901,0.000127,53.217,334.4121,71.1922,288.9208,0.00091715,0.00014348,0.0,0 STARLINK-3701,1 52095U 22029H   24183.69951118  .00014348  00000-0  91715-3 0  9990,2 52095  53.2170 334.4121 0001270  71.1922 288.9208 15.08863901127661,6917.807,95.436,540.551,538.794,0.0
52095.0,STARLINK-3701,PAYLOAD,2024-07-02 13:27:18,15.08872487,0.0001253,53.2156,330.5427,77.2705,282.8427,0.00074804,0.00011648,0.0,0 STARLINK-3701,1 52095U 22029H   24184.56063416  .00011648  00000-0  74804-3 0  9992,2 52095  53.2156 330.5427 0001253  77.2705 282.8427 15.08872487127797,6917.781,95.435,540.513,538.779,0.0
52095.0,STARLINK-3701,PAYLOAD,2024-07-02 16:38:04,15.08876007,0.0001202,53.2161,329.9464,78.588,281.5247,0.00073488,0.00011438,0.0,0 STARLINK-3701,1 52095U 22029H   24184.69311212  .00011438  00000-0  73488-3 0  9990,2 52095  53.2161 329.9464 0001202  78.5880 281.5247 15.08876007127819,6917.77,95.435,540.467,538.804,0.0
52095.0,STARLINK-3701,PAYLOAD,2024-07-03 02:10:23,15.08878766,0.000111,53.2165,328.1628,63.2304,296.8802,0.00071157,0.00011067,0.0,0 STARLINK-3701,1 52095U 22029H   24185.09054921  .00011067  00000-0  71157-3 0  9995,2 52095  53.2165 328.1628 0001110  63.2304 296.8802 15.08878766127872,6917.762,95.435,540.395,538.859,0.0
52095.0,STARLINK-3701,PAYLOAD,2024-07-03 13:18:06,15.0885913,0.0001195,53.2176,326.0869,86.0873,274.0255,0.00077796,0.00012121,0.0,0 STARLINK-3701,1 52095U 22029H   24185.55424132  .00012121  00000-0  77796-3 0  9998,2 52095  53.2176 326.0869 0001195  86.0873 274.0255 15.08859130127947,6917.822,95.436,540.514,538.86,0.0
52095.0,STARLINK-3701,PAYLOAD,2024-07-03 16:28:52,15.08864583,0.0001197,53.2177,325.4925,84.6224,275.4905,0.00079423,0.00012383,0.0,0 STARLINK-3701,1 52095U 22029H   24185.68671791  .00012383  00000-0  79423-3 0  9996,2 52095  53.2177 325.4925 0001197  84.6224 275.4905 15.08864583127967,6917.805,95.436,540.498,538.842,0.0
52095.0,STARLINK-3701,PAYLOAD,2024-07-04 13:08:53,15.08867681,0.0001136,53.2179,321.6289,96.8418,263.2704,0.00087853,0.00013732,0.0,0 STARLINK-3701,1 52095U 22029H   24186.54783605  .00013732  00000-0  87853-3 0  9995,2 52095  53.2179 321.6289 0001136  96.8418 263.2704 15.08867681128092,6917.796,95.436,540.447,538.875,0.0
52095.0,STARLINK-3701,PAYLOAD,2024-07-04 14:44:16,15.08869832,0.0001168,53.2183,321.3315,97.0457,263.0668,0.00087697,0.00013708,0.0,0 STARLINK-3701,1 52095U 22029H   24186.61407492  .00013708  00000-0  87697-3 0  9999,2 52095  53.2183 321.3315 0001168  97.0457 263.0668 15.08869832128104,6917.789,95.436,540.462,538.846,0.0
52095.0,STARLINK-3701,PAYLOAD,2024-07-04 16:19:39,15.08872323,0.0001191,53.2182,321.0334,97.7,262.4127,0.00087615,0.00013696,0.0,0 STARLINK-3701,1 52095U 22029H   24186.68031307  .00013696  00000-0  87615-3 0  9990,2 52095  53.2182 321.0334 0001191  97.7000 262.4127 15.08872323128111,6917.782,95.436,540.471,538.823,0.0
52095.0,STARLINK-3701,PAYLOAD,2024-07-05 01:51:57,15.08876876,0.0001062,53.217,319.2457,68.8797,291.2308,0.0008685,0.00013575,0.0,0 STARLINK-3701,1 52095U 22029H   24187.07774978  .00013575  00000-0  86850-3 0  9998,2 52095  53.2170 319.2457 0001062  68.8797 291.2308 15.08876876128176,6917.768,95.435,540.367,538.898,0.0
52095.0,STARLINK-3701,PAYLOAD,2024-07-05 12:59:40,15.08865682,0.0001096,53.2179,317.167,85.0173,275.0944,0.00084526,0.00013199,0.0,0 STARLINK-3701,1 52095U 22029H   24187.54143840  .00013199  00000-0  84526-3 0  9998,2 52095  53.2179 317.1670 0001096  85.0173 275.0944 15.08865682128242,6917.802,95.436,540.425,538.909,0.0
52095.0,STARLINK-3701,PAYLOAD,2024-07-05 14:35:03,15.08865045,0.0001408,53.2192,316.8705,82.2049,277.9103,0.00085978,0.00013431,0.0,0 STARLINK-3701,1 52095U 22029H   24187.60767941  .00013431  00000-0  85978-3 0  9990,2 52095  53.2192 316.8705 0001408  82.2049 277.9103 15.08865045128252,6917.804,95.436,540.643,538.695,0.0
52095.0,STARLINK-3701,PAYLOAD,2024-07-05 16:10:26,15.08871004,0.0001181,53.2179,316.5725,83.2067,276.906,0.00087762,0.00013719,0.0,0 STARLINK-3701,1 52095U 22029H   24187.67391422  .00013719  00000-0  87762-3 0  9996,2 52095  53.2179 316.5725 0001181  83.2067 276.9060 15.08871004128269,6917.786,95.436,540.468,538.834,0.0
52095.0,STARLINK-3701,PAYLOAD,2024-07-06 01:42:45,15.0887138,0.0001054,53.2181,314.7862,79.0047,281.1064,0.0008231,0.00012847,0.0,0 STARLINK-3701,1 52095U 22029H   24188.07135546  .00012847  00000-0  82310-3 0  9999,2 52095  53.2181 314.7862 0001054  79.0047 281.1064 15.08871380128320,6917.784,95.436,540.379,538.92,0.0
52095.0,STARLINK-3701,PAYLOAD,2024-07-06 12:50:27,15.08869167,0.0001701,53.2181,312.7052,85.7528,274.3658,0.00079538,0.00012403,0.0,0 STARLINK-3701,1 52095U 22029H   24188.53504023  .00012403  00000-0  79538-3 0  9996,2 52095  53.2181 312.7052 0001701  85.7528 274.3658 15.08869167128396,6917.791,95.436,540.833,538.48,0.0
52095.0,STARLINK-3701,PAYLOAD,2024-07-06 14:25:50,15.0886855,0.0001186,53.217,312.4085,84.6874,275.4254,0.00073344,0.00011413,0.0,0 STARLINK-3701,1 52095U 22029H   24188.60128212  .00011413  00000-0  73344-3 0  9995,2 52095  53.2170 312.4085 0001186  84.6874 275.4254 15.08868550128407,6917.793,95.436,540.479,538.838,0.0
52095.0,STARLINK-3701,PAYLOAD,2024-07-06 16:01:13,15.08873109,0.0001154,53.2175,312.1103,84.5567,275.5557,0.00075372,0.00011739,0.0,0 STARLINK-3701,1 52095U 22029H   24188.66751823  .00011739  00000-0  75372-3 0  9995,2 52095  53.2175 312.1103 0001154  84.5567 275.5557 15.08873109128417,6917.779,95.435,540.443,538.846,0.0
52095.0,STARLINK-3701,PAYLOAD,2024-07-07 01:33:32,15.08877271,0.0001144,53.2171,310.3262,84.3311,275.7812,0.00071927,0.00011189,0.0,0 STARLINK-3701,1 52095U 22029H   24189.06495613  .00011189  00000-0  71927-3 0  9993,2 52095  53.2171 310.3262 0001144  84.3311 275.7812 15.08877271128479,6917.766,95.435,540.423,538.84,0.0
52095.0,STARLINK-3701,PAYLOAD,2024-07-07 07:55:04,15.08865785,0.0001129,53.2171,309.1373,80.9287,279.1833,0.00083693,0.00013066,0.0,0 STARLINK-3701,1 52095U 22029H   24189.32991889  .00013066  00000-0  83693-3 0  9997,2 52095  53.2171 309.1373 0001129  80.9287 279.1833 15.08865785128518,6917.802,95.436,540.448,538.886,0.0
52095.0,STARLINK-3701,PAYLOAD,2024-07-07 14:16:37,15.0887502,0.00011,53.2173,307.9464,88.1028,272.009,0.00081436,0.00012709,0.0,0 STARLINK-3701,1 52095U 22029H   24189.59487413  .00012709  00000-0  81436-3 0  9995,2 52095  53.2173 307.9464 0001100  88.1028 272.0090 15.08875020128553,6917.773,95.435,540.399,538.877,0.0
